[{"OBJECT_NAME":"STARLINK-34920","OBJECT_ID":"2025-194P","EPOCH":"2026-03-09T13:43:56.540352","MEAN_MOTION":15.05628187,"ECCENTRICITY":0.0001038,"INCLINATION":97.6029,"RA_OF_ASC_NODE":284.3342,"ARG_OF_PERICENTER":40.4245,"MEAN_ANOMALY":319.7058,"EPHEMERIS_TYPE":0,"CLASSIFICATION_TYPE":"U","NORAD_CAT_ID":65447,"ELEMENT_SET_NO":999,"REV_AT_EPOCH":2963,"BSTAR":-0.00032566,"MEAN_MOTION_DOT":-4.754e-5,"MEAN_MOTION_DDOT":0},{"OBJECT_NAME":"FENGYUN 1C DEB","OBJECT_ID":"1999-025CKC","EPOCH":"2026-03-08T17:03:17.573184","MEAN_MOTION":15.04248193,"ECCENTRICITY":0.00988517,"INCLINATION":98.9933,"RA_OF_ASC_NODE":156.7578,"ARG_OF_PERICENTER":358.897,"MEAN_ANOMALY":1.2019,"EPHEMERIS_TYPE":0,"CLASSIFICATION_TYPE":"U","NORAD_CAT_ID":31877,"ELEMENT_SET_NO":999,"REV_AT_EPOCH":332,"BSTAR":0.0010830251,"MEAN_MOTION_DOT":0.0001673,"MEAN_MOTION_DDOT":0}]
